NORAD_CAT_ID,OBJECT_NAME,OBJECT_TYPE,EPOCH,MEAN_MOTION,ECCENTRICITY,INCLINATION,RA_OF_ASC_NODE,ARG_OF_PERICENTER,MEAN_ANOMALY,BSTAR,MEAN_MOTION_DOT,MEAN_MOTION_DDOT,TLE_LINE0,TLE_LINE1,TLE_LINE2,SEMIMAJOR_AXIS,PERIOD,APOGEE,PERIGEE,DECAYED
52708.0,STARLINK-3962,PAYLOAD,2023-01-12 22:08:40,15.0884184,0.0001996,53.2147,264.6074,50.3808,309.736,0.00014934,2.09e-05,0.0,0 STARLINK-3962,1 52708U 22053BE  23012.92269579  .00002090  00000-0  14934-3 0  9996,2 52708  53.2147 264.6074 0001996  50.3808 309.7360 15.08841840 37641,6917.875,95.437,541.121,538.359,0.0
52708.0,STARLINK-3962,PAYLOAD,2023-01-13 14:02:32,15.08833729,0.0001771999999999,53.2156,261.6364,54.2147,305.901,0.00011531,1.547e-05,0.0,0 STARLINK-3962,1 52708U 22053BE  23013.58510124  .00001547  00000-0  11531-3 0  9990,2 52708  53.2156 261.6364 0001772  54.2147 305.9010 15.08833729 37749,6917.9,95.438,540.99,538.539,0.0
52708.0,STARLINK-3962,PAYLOAD,2023-01-13 18:48:42,15.08834187,0.0001853,53.2143,260.7414,62.5602,297.5579,0.00014308,1.989e-05,0.0,0 STARLINK-3962,1 52708U 22053BE  23013.78382176  .00001989  00000-0  14308-3 0  9991,2 52708  53.2143 260.7414 0001853  62.5602 297.5579 15.08834187 37777,6917.898,95.438,541.045,538.481,0.0
52708.0,STARLINK-3962,PAYLOAD,2023-01-13 23:34:51,15.08843653,0.0001656,53.2148,259.8496,61.3337,298.7821,0.0002466,3.639e-05,0.0,0 STARLINK-3962,1 52708U 22053BE  23013.98253678  .00003639  00000-0  24660-3 0  9993,2 52708  53.2148 259.8496 0001656  61.3337 298.7821 15.08843653 37179,6917.869000000001,95.437,540.88,538.589,0.0
52708.0,STARLINK-3962,PAYLOAD,2023-01-14 18:39:29,15.08834604,0.0001575,53.2146,256.2813,64.6865,295.42900000000003,-8.519800000000001e-06,-4.24e-06,0.0,0 STARLINK-3962,1 52708U 22053BE  23014.77742161 -.00000424  00000-0 -85198-5 0  9997,2 52708  53.2146 256.2813 0001575  64.6865 295.4290 15.08834604 37296,6917.897,95.438,540.851,538.672,0.0
52708.0,STARLINK-3962,PAYLOAD,2023-01-15 01:01:01,15.08846202,0.0002281,53.2129,255.0892,74.8741,285.2503,0.00010822,1.435e-05,0.0,0 STARLINK-3962,1 52708U 22053BE  23015.04237813  .00001435  00000-0  10822-3 0  9992,2 52708  53.2129 255.0892 0002281  74.8741 285.2503 15.08846202 37338,6917.861,95.437,541.304,538.148,0.0
52708.0,STARLINK-3962,PAYLOAD,2023-01-15 10:33:20,15.08836664,0.0001714,53.2136,253.3073,75.042,285.0762,2.4606e-05,1.04e-06,0.0,0 STARLINK-3962,1 52708U 22053BE  23015.43982151  .00000104  00000-0  24606-4 0  9995,2 52708  53.2136 253.3073 0001714  75.0420 285.0762 15.08836664 37397,6917.891,95.438,540.941,538.57,0.0
52708.0,STARLINK-3962,PAYLOAD,2023-01-15 21:41:01,15.08849615,0.0001462,53.2147,251.2244,77.5528,282.5628,0.00024928,3.683e-05,0.0,0 STARLINK-3962,1 52708U 22053BE  23015.90349536  .00003683  00000-0  24928-3 0  9992,2 52708  53.2147 251.2244 0001462  77.5528 282.5628 15.08849615 38093,6917.851,95.437,540.727,538.705,0.0
52708.0,STARLINK-3962,PAYLOAD,2023-01-15 23:16:25,15.08850645,0.0001479,53.2148,250.9269,78.2468,281.869,0.00026085,3.867e-05,0.0,0 STARLINK-3962,1 52708U 22053BE  23015.96973476  .00003867  00000-0  26085-3 0  9994,2 52708  53.2148 250.9269 0001479  78.2468 281.8690 15.08850645 37473,6917.848000000001,95.437,540.736,538.69,0.0
52708.0,STARLINK-3962,PAYLOAD,2023-01-16 10:24:07,15.08836463,0.0001906,53.2132,248.8455,72.8049,287.3151,9.5372e-05,1.23e-05,0.0,0 STARLINK-3962,1 52708U 22053BE  23016.43342415  .00001230  00000-0  95372-4 0  9998,2 52708  53.2132 248.8455 0001906  72.8049 287.3151 15.08836463 37542,6917.891,95.438,541.075,538.438,0.0
52708.0,STARLINK-3962,PAYLOAD,2023-01-16 11:59:31,15.08832489,0.0002031,53.2127,248.5483,74.5101,285.6115,4.1619e-05,3.74e-06,0.0,0 STARLINK-3962,1 52708U 22053BE  23016.49966716  .00000374  00000-0  41619-4 0  9993,2 52708  53.2127 248.5483 0002031  74.5101 285.6115 15.08832489 38188,6917.903,95.438,541.173,538.363,0.0
52708.0,STARLINK-3962,PAYLOAD,2023-01-16 18:21:03,15.08827129,0.0001603,53.214,247.3588,72.0345,288.0822,-4.1807e-05,-9.53e-06,0.0,0 STARLINK-3962,1 52708U 22053BE  23016.76462940 -.00000953  00000-0 -41807-4 0  9997,2 52708  53.2140 247.3588 0001603  72.0345 288.0822 15.08827129 37594,6917.92,95.438,540.894,538.6759999999999,0.0
52708.0,STARLINK-3962,PAYLOAD,2023-01-16 21:31:50,15.08830567,0.0001548,53.2142,246.7636,73.166,286.9502,4.2025e-05,3.81e-06,0.0,0 STARLINK-3962,1 52708U 22053BE  23016.89710946  .00000381  00000-0  42025-4 0  9999,2 52708  53.2142 246.7636 0001548  73.1660 286.9502 15.08830567 38248,6917.909000000001,95.438,540.845,538.703,0.0
52708.0,STARLINK-3962,PAYLOAD,2023-01-17 10:14:55,15.08835904,0.0001499,53.2141,244.3858,69.5381,290.5771,0.0003854,5.85e-05,0.0,0 STARLINK-3962,1 52708U 22053BE  23017.42703111  .00005850  00000-0  38540-3 0  9997,2 52708  53.2141 244.3858 0001499  69.5381 290.5771 15.08835904 38329,6917.893,95.438,540.795,538.721,0.0
52708.0,STARLINK-3962,PAYLOAD,2023-01-17 21:22:37,15.08849967,0.0001587,53.2142,242.3045,66.0644,294.0514,0.00086177,0.00013457,0.0,0 STARLINK-3962,1 52708U 22053BE  23017.89071089  .00013457  00000-0  86177-3 0  9991,2 52708  53.2142 242.3045 0001587  66.0644 294.0514 15.08849967 37763,6917.85,95.437,540.813,538.617,0.0
52708.0,STARLINK-3962,PAYLOAD,2023-01-18 10:05:42,15.08856689,0.0001604,53.2138,239.9256,66.4698,293.6462,0.00071025,0.00011039,0.0,0 STARLINK-3962,1 52708U 22053BE  23018.42062781  .00011039  00000-0  71025-3 0  9990,2 52708  53.2138 239.9256 0001604  66.4698 293.6462 15.08856689 38472,6917.829000000001,95.436,540.804,538.585,0.0
52708.0,STARLINK-3962,PAYLOAD,2023-01-18 21:13:23,15.08853963,0.0001399,53.2141,237.8433,72.3696,287.7448,0.00036458,5.521e-05,0.0,0 STARLINK-3962,1 52708U 22053BE  23018.88430458  .00005521  00000-0  36458-3 0  9990,2 52708  53.2141 237.8433 0001399  72.3696 287.7448 15.08853963 37913,6917.838000000001,95.437,540.6709999999999,538.735,0.0
52708.0,STARLINK-3962,PAYLOAD,2023-01-19 14:42:38,15.08843434,0.00016,53.2124,234.5761,70.7611,289.3554,8.181e-05,1.014e-05,0.0,0 STARLINK-3962,1 52708U 22053BE  23019.61294876  .00001014  00000-0  81810-4 0  9990,2 52708  53.2124 234.5761 0001600  70.7611 289.3554 15.08843434 38027,6917.87,95.437,540.842,538.628,0.0
52708.0,STARLINK-3962,PAYLOAD,2023-01-20 09:47:16,15.08839485,0.0001330999999999,53.2139,231.0034,82.8391,277.2752,9.5217e-05,1.228e-05,0.0,0 STARLINK-3962,1 52708U 22053BE  23020.40782825  .00001228  00000-0  95217-4 0  9998,2 52708  53.2139 231.0034 0001331  82.8391 277.2752 15.08839485 38777,6917.882,95.438,540.668,538.826,0.0
52708.0,STARLINK-3962,PAYLOAD,2023-01-20 19:19:35,15.08845245,0.0001351,53.2138,229.2194,83.2729,276.8417,0.00022205,3.248e-05,0.0,0 STARLINK-3962,1 52708U 22053BE  23020.80526708  .00003248  00000-0  22205-3 0  9998,2 52708  53.2138 229.2194 0001351  83.2729 276.8417 15.08845245 38206,6917.8640000000005,95.437,540.664,538.795,0.0
52708.0,STARLINK-3962,PAYLOAD,2023-01-21 09:38:03,15.08838038,0.0001291,53.2137,226.5437,89.2586,270.8554,9.1116e-05,1.162e-05,0.0,0 STARLINK-3962,1 52708U 22053BE  23021.40143039  .00001162  00000-0  91116-4 0  9998,2 52708  53.2137 226.5437 0001291  89.2586 270.8554 15.08838038 38292,6917.886,95.438,540.644,538.8580000000001,0.0
52708.0,STARLINK-3962,PAYLOAD,2023-01-21 15:59:36,15.08820355,0.0001619,53.2137,225.3541,93.1488,266.9689,0.00055909,8.616e-05,0.0,0 STARLINK-3962,1 52708U 22053BE  23021.66640011  .00008616  00000-0  55909-3 0  9998,2 52708  53.2137 225.3541 0001619  93.1488 266.9689 15.08820355 38337,6917.94,95.439,540.925,538.685,0.0
52708.0,STARLINK-3962,PAYLOAD,2023-01-22 09:28:50,15.08838351,0.0001389,53.2135,222.0824,88.8665,271.2486,5.8358e-05,6.41e-06,0.0,0 STARLINK-3962,1 52708U 22053BE  23022.39503081  .00000641  00000-0  58358-4 0  9996,2 52708  53.2135 222.0824 0001389  88.8665 271.2486 15.08838351 38446,6917.885,95.438,540.711,538.79,0.0
52708.0,STARLINK-3962,PAYLOAD,2023-01-23 15:41:10,15.08839668,0.000134,53.2139,216.4319,90.9498,269.1648,0.00015788,2.226e-05,0.0,0 STARLINK-3962,1 52708U 22053BE  23023.65359132  .00002226  00000-0  15788-3 0  9992,2 52708  53.2139 216.4319 0001340  90.9498 269.1648 15.08839668 38630,6917.880999999999,95.438,540.673,538.819,0.0
52708.0,STARLINK-3962,PAYLOAD,2023-01-24 18:42:43,15.08842256,0.0001335,53.2151,211.3762,88.0759,272.0386,3.8172e-05,3.2e-06,0.0,0 STARLINK-3962,1 52708U 22053BE  23024.77967116  .00000320  00000-0  38172-4 0  9999,2 52708  53.2151 211.3762 0001335  88.0759 272.0386 15.08842256 38800,6917.8730000000005,95.437,540.6619999999999,538.815,0.0
52708.0,STARLINK-3962,PAYLOAD,2023-01-25 05:50:25,15.08833668,0.0001319,53.2151,209.2948,92.0604,268.0539,0.00017353,2.474e-05,0.0,0 STARLINK-3962,1 52708U 22053BE  23025.24335436  .00002474  00000-0  17353-3 0  9995,2 52708  53.2151 209.2948 0001319  92.0604 268.0539 15.08833668 38877,6917.9,95.438,540.677,538.852,0.0
52708.0,STARLINK-3962,PAYLOAD,2023-01-25 16:58:07,15.08839225,0.0001274999999999,53.2151,207.2129,90.098,270.0158,0.00010291,1.35e-05,0.0,0 STARLINK-3962,1 52708U 22053BE  23025.70703134  .00001350  00000-0  10291-3 0  9996,2 52708  53.2151 207.2129 0001275  90.0980 270.0158 15.08839225 39575,6917.883000000001,95.438,540.63,538.866,0.0
52708.0,STARLINK-3962,PAYLOAD,2023-01-25 21:44:16,15.08843233,0.0001315999999999,53.215,206.3207,89.8113,270.303,8.4874e-05,1.063e-05,0.0,0 STARLINK-3962,1 52708U 22053BE  23025.90574891  .00001063  00000-0  84874-4 0  9994,2 52708  53.2150 206.3207 0001316  89.8113 270.3030 15.08843233 38970,6917.871,95.437,540.646,538.825,0.0
52708.0,STARLINK-3962,PAYLOAD,2023-01-26 12:02:45,15.08839116,0.0001284999999999,53.2149,203.6442,88.2292,271.8848,7.3895e-05,8.88e-06,0.0,0 STARLINK-3962,1 52708U 22053BE  23026.50191137  .00000888  00000-0  73895-4 0  9994,2 52708  53.2149 203.6442 0001285  88.2292 271.8848 15.08839116 39693,6917.883000000001,95.438,540.637,538.859,0.0
